{
  "type": "FeatureCollection",
  "features": [
    {
      "type": "Feature",
      "properties": {
        "norad_id": 66575,
        "name": "STARLINK-35810",
        "group": "last-30-days",
        "lat": -39.40040848101906,
        "lon": -80.02568607111779,
        "alt_km": 460.96808005757885,
        "timestamp": "2025-12-26T22:28:04.495672+00:00",
        "meta_object_name": "STARLINK-35810",
        "meta_object_id": "2025-268U",
        "meta_epoch": "2025-12-26T18:00:02.998944",
        "meta_mean_motion": 15.36649211,
        "meta_eccentricity": 0.000116,
        "meta_inclination": 43.0008,
        "meta_ra_of_asc_node": 39.2204,
        "meta_arg_of_pericenter": 262.7562,
        "meta_mean_anomaly": 35.2198,
        "meta_ephemeris_type": 0,
        "meta_classification_type": "U",
        "meta_norad_cat_id": 66575,
        "meta_element_set_no": 999,
        "meta_rev_at_epoch": 604,
        "meta_bstar": -0.061592,
        "meta_mean_motion_dot": -0.02003486,
        "meta_mean_motion_ddot": 0,
        "tle_line1": "1 66575U 25268U   25360.75003471 -.02003486  00000+0 -61592-1 0  9993",
        "tle_line2": "2 66575  43.0008  39.2204 0001160 262.7562  35.2198 15.36649211  6040"
      },
      "geometry": {
        "type": "Point",
        "coordinates": [
          -80.02568607111779,
          -39.40040848101906
        ]
      }
    },
    {
      "type": "Feature",
      "properties": {
        "norad_id": 66576,
        "name": "STARLINK-35814",
        "group": "last-30-days",
        "lat": -42.68995700020326,
        "lon": -60.03710715483004,
        "alt_km": 458.6242795193866,
        "timestamp": "2025-12-26T22:28:04.495683+00:00",
        "meta_object_name": "STARLINK-35814",
        "meta_object_id": "2025-268V",
        "meta_epoch": "2025-12-26T18:00:02.998944",
        "meta_mean_motion": 15.37492583,
        "meta_eccentricity": 0.0001125,
        "meta_inclination": 43.0004,
        "meta_ra_of_asc_node": 39.1836,
        "meta_arg_of_pericenter": 263.5774,
        "meta_mean_anomaly": 49.274,
        "meta_ephemeris_type": 0,
        "meta_classification_type": "U",
        "meta_norad_cat_id": 66576,
        "meta_element_set_no": 999,
        "meta_rev_at_epoch": 604,
        "meta_bstar": -0.060623,
        "meta_mean_motion_dot": -0.02024467,
        "meta_mean_motion_ddot": 0,
        "tle_line1": "1 66576U 25268V   25360.75003471 -.02024467  00000+0 -60623-1 0  9990",
        "tle_line2": "2 66576  43.0004  39.1836 0001125 263.5774  49.2740 15.37492583  6049"
      },
      "geometry": {
        "type": "Point",
        "coordinates": [
          -60.03710715483004,
          -42.68995700020326
        ]
      }
    },
    {
      "type": "Feature",
      "properties": {
        "norad_id": 66577,
        "name": "STARLINK-35815",
        "group": "last-30-days",
        "lat": -40.417851936153575,
        "lon": -27.98672064310905,
        "alt_km": 454.0956991427847,
        "timestamp": "2025-12-26T22:28:04.495693+00:00",
        "meta_object_name": "STARLINK-35815",
        "meta_object_id": "2025-268W",
        "meta_epoch": "2025-12-26T18:00:02.998944",
        "meta_mean_motion": 15.38957504,
        "meta_eccentricity": 0.0001487,
        "meta_inclination": 43.0007,
        "meta_ra_of_asc_node": 39.1266,
        "meta_arg_of_pericenter": 261.8109,
        "meta_mean_anomaly": 74.0827,
        "meta_ephemeris_type": 0,
        "meta_classification_type": "U",
        "meta_norad_cat_id": 66577,
        "meta_element_set_no": 999,
        "meta_rev_at_epoch": 609,
        "meta_bstar": -0.05904,
        "meta_mean_motion_dot": -0.02064249,
        "meta_mean_motion_ddot": 0,
        "tle_line1": "1 66577U 25268W   25360.75003471 -.02064249  00000+0 -59040-1 0  9994",
        "tle_line2": "2 66577  43.0007  39.1266 0001487 261.8109  74.0827 15.38957504  6091"
      },
      "geometry": {
        "type": "Point",
        "coordinates": [
          -27.98672064310905,
          -40.417851936153575
        ]
      }
    },
    {
      "type": "Feature",
      "properties": {
        "norad_id": 66578,
        "name": "STARLINK-35743",
        "group": "last-30-days",
        "lat": -35.365796235760634,
        "lon": -11.587094283824554,
        "alt_km": 451.59116866624936,
        "timestamp": "2025-12-26T22:28:04.495704+00:00",
        "meta_object_name": "STARLINK-35743",
        "meta_object_id": "2025-268X",
        "meta_epoch": "2025-12-26T18:00:02.998944",
        "meta_mean_motion": 15.39769621,
        "meta_eccentricity": 0.0001337,
        "meta_inclination": 43.0005,
        "meta_ra_of_asc_node": 39.0939,
        "meta_arg_of_pericenter": 265.951,
        "meta_mean_anomaly": 83.3027,
        "meta_ephemeris_type": 0,
        "meta_classification_type": "U",
        "meta_norad_cat_id": 66578,
        "meta_element_set_no": 999,
        "meta_rev_at_epoch": 592,
        "meta_bstar": -0.056723,
        "meta_mean_motion_dot": -0.02040388,
        "meta_mean_motion_ddot": 0,
        "tle_line1": "1 66578U 25268X   25360.75003471 -.02040388  00000+0 -56723-1 0  9998",
        "tle_line2": "2 66578  43.0005  39.0939 0001337 265.9510  83.3027 15.39769621  5929"
      },
      "geometry": {
        "type": "Point",
        "coordinates": [
          -11.587094283824554,
          -35.365796235760634
        ]
      }
    },
    {
      "type": "Feature",
      "properties": {
        "norad_id": 66579,
        "name": "STARLINK-35868",
        "group": "last-30-days",
        "lat": -28.698788663857663,
        "lon": 2.011769326256569,
        "alt_km": 448.71428960894264,
        "timestamp": "2025-12-26T22:28:04.495717+00:00",
        "meta_object_name": "STARLINK-35868",
        "meta_object_id": "2025-268Y",
        "meta_epoch": "2025-12-26T18:00:02.998944",
        "meta_mean_motion": 15.40637279,
        "meta_eccentricity": 0.0001481,
        "meta_inclination": 43,
        "meta_ra_of_asc_node": 39.063,
        "meta_arg_of_pericenter": 268.5639,
        "meta_mean_anomaly": 93.4456,
        "meta_ephemeris_type": 0,
        "meta_classification_type": "U",
        "meta_norad_cat_id": 66579,
        "meta_element_set_no": 999,
        "meta_rev_at_epoch": 598,
        "meta_bstar": -0.055975,
        "meta_mean_motion_dot": -0.02069122,
        "meta_mean_motion_ddot": 0,
        "tle_line1": "1 66579U 25268Y   25360.75003471 -.02069122  00000+0 -55975-1 0  9994",
        "tle_line2": "2 66579  43.0000  39.0630 0001481 268.5639  93.4456 15.40637279  5983"
      },
      "geometry": {
        "type": "Point",
        "coordinates": [
          2.011769326256569,
          -28.698788663857663
        ]
      }
    },
    {
      "type": "Feature",
      "properties": {
        "norad_id": 66580,
        "name": "STARLINK-35872",
        "group": "last-30-days",
        "lat": -21.180604732420303,
        "lon": 13.388711162375404,
        "alt_km": 445.87812528796167,
        "timestamp": "2025-12-26T22:28:04.495728+00:00",
        "meta_object_name": "STARLINK-35872",
        "meta_object_id": "2025-268Z",
        "meta_epoch": "2025-12-26T18:00:02.998944",
        "meta_mean_motion": 15.41477059,
        "meta_eccentricity": 0.0001505,
        "meta_inclination": 43.0003,
        "meta_ra_of_asc_node": 39.0329,
        "meta_arg_of_pericenter": 267.6341,
        "meta_mean_anomaly": 106.5962,
        "meta_ephemeris_type": 0,
        "meta_classification_type": "U",
        "meta_norad_cat_id": 66580,
        "meta_element_set_no": 999,
        "meta_rev_at_epoch": 609,
        "meta_bstar": -0.054587,
        "meta_mean_motion_dot": -0.02074867,
        "meta_mean_motion_ddot": 0,
        "tle_line1": "1 66580U 25268Z   25360.75003471 -.02074867  00000+0 -54587-1 0  9996",
        "tle_line2": "2 66580  43.0003  39.0329 0001505 267.6341 106.5962 15.41477059  6090"
      },
      "geometry": {
        "type": "Point",
        "coordinates": [
          13.388711162375404,
          -21.180604732420303
        ]
      }
    },
    {
      "type": "Feature",
      "properties": {
        "norad_id": 66581,
        "name": "STARLINK-35744",
        "group": "last-30-days",
        "lat": -13.34343054244045,
        "lon": 23.183441409951,
        "alt_km": 442.8446678368846,
        "timestamp": "2025-12-26T22:28:04.495739+00:00",
        "meta_object_name": "STARLINK-35744",
        "meta_object_id": "2025-268AA",
        "meta_epoch": "2025-12-26T18:00:02.998944",
        "meta_mean_motion": 15.42314756,
        "meta_eccentricity": 0.0001547,
        "meta_inclination": 43.0013,
        "meta_ra_of_asc_node": 39.0036,
        "meta_arg_of_pericenter": 269.9937,
        "meta_mean_anomaly": 115.8969,
        "meta_ephemeris_type": 0,
        "meta_classification_type": "U",
        "meta_norad_cat_id": 66581,
        "meta_element_set_no": 999,
        "meta_rev_at_epoch": 604,
        "meta_bstar": -0.053166,
        "meta_mean_motion_dot": -0.02078461,
        "meta_mean_motion_ddot": 0,
        "tle_line1": "1 66581U 25268AA  25360.75003471 -.02078461  00000+0 -53166-1 0  9993",
        "tle_line2": "2 66581  43.0013  39.0036 0001547 269.9937 115.8969 15.42314756  6049"
      },
      "geometry": {
        "type": "Point",
        "coordinates": [
          23.183441409951,
          -13.34343054244045
        ]
      }
    }
  ]
}